0 DMSP 5D-2 F14 DEB
1 24777U 97012D   13282.29056376  .00004551  00000-0  11916-2 0  7252
2 24777 098.8430 205.4237 0001248 277.6939 233.8255 14.49821593862484
0 DMSP 5D-2 F14 DEB
1 24777U 97012D   13283.39223461  .00004929  00000-0  12892-2 0  7269
2 24777 098.8427 206.5788 0000997 277.9623 220.2593 14.49827123862644
0 DMSP 5D-2 F14 DEB
1 24777U 97012D   13285.39388418  .00006764  00000-0  17627-2 0  7287
2 24777 098.8427 208.6790 0001005 258.6982 240.9820 14.49860094862933
0 DMSP 5D-2 F14 DEB
1 24777U 97012D   13286.49471881  .00007257  00000-0  18898-2 0  7296
2 24777 098.8434 209.8339 0000846 246.1942 235.9987 14.49870739863096
0 DMSP 5D-2 F14 DEB
1 24777U 97012D   13287.39519229  .00005278  00000-0  13781-2 0  7304
2 24777 098.8437 210.7785 0001064 247.1542 252.3765 14.49874201863225
0 DMSP 5D-2 F14 DEB
1 24777U 97012D   13288.83246135  .00006793  00000-0  17689-2 0  7312
2 24777 098.8442 212.2863 0000676 223.1306 214.0308 14.49895968863439
0 DMSP 5D-2 F14 DEB
1 24777U 97012D   13290.36429428  .00007268  00000-0  18910-2 0  7328
2 24777 098.8444 213.8930 0000570 192.7974 315.3905 14.49911904863659
0 DMSP 5D-2 F14 DEB
1 24777U 97012D   13291.79975885  .00011177  00000-0  28974-2 0  7335
2 24777 098.8443 215.3988 0000853 193.8928 242.7498 14.49944746863866
0 DMSP 5D-2 F14 DEB
1 24777U 97012D   13292.82630031  .00009565  00000-0  24812-2 0  7347
2 24777 098.8443 216.4756 0000978 166.0860 225.8439 14.49961261864012
0 DMSP 5D-2 F14 DEB
1 24777U 97012D   13293.39894211  .00006679  00000-0  17371-2 0  7358
2 24777 098.8448 217.0770 0000906 177.1114 322.1900 14.49960320864093
0 DMSP 5D-2 F14 DEB
1 24777U 97012D   13294.49614758  .00006095  00000-0  15862-2 0  7362
2 24777 098.8446 218.2283 0000994 171.5954 291.6844 14.49968463864251
0 DMSP 5D-2 F14 DEB
1 24777U 97012D   13295.86529439  .00006718  00000-0  17463-2 0  7377
2 24777 098.8441 219.6653 0001221 145.3595 260.6409 14.49985000864457
